{"type": "FeatureCollection", "features": [ {"type": "Feature", "properties": {"norad_id": 42741, "name": "EUTELSAT 172B", "group": "eutelsat", "lat": 0.010247327280967547, "lon": 146.738459099697, "alt_km": 35787.22597969379, "timestamp": "2025-12-13T16:48:32.384805+00:00", "meta": {"OBJECT_NAME": "EUTELSAT 172B", "OBJECT_ID": "2017-029B", "EPOCH": "2025-12-12T19:26:06.936000", "MEAN_MOTION": 1.00270135, "ECCENTRICITY": 1.944e-05, "INCLINATION": 0.0458, "RA_OF_ASC_NODE": 145.1933, "ARG_OF_PERICENTER": 209.1575, "MEAN_ANOMALY": 190.9157, "EPHEMERIS_TYPE": 0, "CLASSIFICATION_TYPE": "U", "NORAD_CAT_ID": 42741, "ELEMENT_SET_NO": 999, "REV_AT_EPOCH": 3186, "BSTAR": 0, "MEAN_MOTION_DOT": 6e-08, "MEAN_MOTION_DDOT": 0}, "tle": {"line1": "1 42741U 17029B   25346.80980250  .00000006  00000+0  00000+0 0  9993", "line2": "2 42741   0.0458 145.1933 0000194 209.1575 190.9157  1.00270135 31865"}}, "geometry": {"type": "Point", "coordinates": [146.738459099697, 0.010247327280967547]}}, {"type": "Feature", "properties": {"norad_id": 44334, "name": "EUTELSAT 7C", "group": "eutelsat", "lat": 0.024719941462608162, "lon": -18.22348851737201, "alt_km": 35787.83220820242, "timestamp": "2025-12-13T16:48:32.384817+00:00", "meta": {"OBJECT_NAME": "EUTELSAT 7C", "OBJECT_ID": "2019-034B", "EPOCH": "2025-12-12T20:21:46.603584", "MEAN_MOTION": 1.00271857, "ECCENTRICITY": 0.00032214, "INCLINATION": 0.0717, "RA_OF_ASC_NODE": 176.4232, "ARG_OF_PERICENTER": 67.4743, "MEAN_ANOMALY": 150.3191, "EPHEMERIS_TYPE": 0, "CLASSIFICATION_TYPE": "U", "NORAD_CAT_ID": 44334, "ELEMENT_SET_NO": 999, "REV_AT_EPOCH": 496, "BSTAR": 0, "MEAN_MOTION_DOT": 6.1e-07, "MEAN_MOTION_DDOT": 0}, "tle": {"line1": "1 44334U 19034B   25346.84845606  .00000061  00000+0  00000+0 0  9991", "line2": "2 44334   0.0717 176.4232 0003221  67.4743 150.3191  1.00271857  4969"}}, "geometry": {"type": "Point", "coordinates": [-18.22348851737201, 0.024719941462608162]}}, {"type": "Feature", "properties": {"norad_id": 44624, "name": "EUTELSAT 5 WEST B", "group": "eutelsat", "lat": -0.023197132750127688, "lon": -30.209386978993884, "alt_km": 35780.55631482833, "timestamp": "2025-12-13T16:48:32.384829+00:00", "meta": {"OBJECT_NAME": "EUTELSAT 5 WEST B", "OBJECT_ID": "2019-067A", "EPOCH": "2025-12-12T23:43:43.133952", "MEAN_MOTION": 1.00271982, "ECCENTRICITY": 0.00033233, "INCLINATION": 0.0617, "RA_OF_ASC_NODE": 349.9107, "ARG_OF_PERICENTER": 272.7245, "MEAN_ANOMALY": 170.221, "EPHEMERIS_TYPE": 0, "CLASSIFICATION_TYPE": "U", "NORAD_CAT_ID": 44624, "ELEMENT_SET_NO": 999, "REV_AT_EPOCH": 2257, "BSTAR": 0, "MEAN_MOTION_DOT": -2.9e-07, "MEAN_MOTION_DDOT": 0}, "tle": {"line1": "1 44624U 19067A   25346.98869368 -.00000029  00000+0  00000+0 0  9990", "line2": "2 44624   0.0617 349.9107 0003323 272.7245 170.2210  1.00271982 22578"}}, "geometry": {"type": "Point", "coordinates": [-30.209386978993884, -0.023197132750127688]}}, {"type": "Feature", "properties": {"norad_id": 45027, "name": "EUTELSAT KONNECT", "group": "eutelsat", "lat": -0.06190064392021197, "lon": -18.01779350168803, "alt_km": 35784.2371671586, "timestamp": "2025-12-13T16:48:32.384841+00:00", "meta": {"OBJECT_NAME": "EUTELSAT KONNECT", "OBJECT_ID": "2020-005B", "EPOCH": "2025-12-12T13:30:55.955232", "MEAN_MOTION": 1.00273737, "ECCENTRICITY": 0.0001425, "INCLINATION": 0.0708, "RA_OF_ASC_NODE": 97.134, "ARG_OF_PERICENTER": 166.5481, "MEAN_ANOMALY": 27.7604, "EPHEMERIS_TYPE": 0, "CLASSIFICATION_TYPE": "U", "NORAD_CAT_ID": 45027, "ELEMENT_SET_NO": 999, "REV_AT_EPOCH": 2246, "BSTAR": 0, "MEAN_MOTION_DOT": 6.1e-07, "MEAN_MOTION_DDOT": 0}, "tle": {"line1": "1 45027U 20005B   25346.56314763  .00000061  00000+0  00000+0 0  9995", "line2": "2 45027   0.0708  97.1340 0001425 166.5481  27.7604  1.00273737 22462"}}, "geometry": {"type": "Point", "coordinates": [-18.01779350168803, -0.06190064392021197]}}, {"type": "Feature", "properties": {"norad_id": 49056, "name": "EUTELSAT QUANTUM", "group": "eutelsat", "lat": 0.003843014247738097, "lon": 22.500416411569233, "alt_km": 35790.3642259713, "timestamp": "2025-12-13T16:48:32.384853+00:00", "meta": {"OBJECT_NAME": "EUTELSAT QUANTUM", "OBJECT_ID": "2021-069B", "EPOCH": "2025-12-12T22:16:03.266976", "MEAN_MOTION": 1.00272849, "ECCENTRICITY": 0.00036095, "INCLINATION": 0.0229, "RA_OF_ASC_NODE": 40.9329, "ARG_OF_PERICENTER": 233.8595, "MEAN_ANOMALY": 188.7902, "EPHEMERIS_TYPE": 0, "CLASSIFICATION_TYPE": "U", "NORAD_CAT_ID": 49056, "ELEMENT_SET_NO": 999, "REV_AT_EPOCH": 1606, "BSTAR": 0, "MEAN_MOTION_DOT": 1.38e-06, "MEAN_MOTION_DDOT": 0}, "tle": {"line1": "1 49056U 21069B   25346.92781559  .00000138  00000+0  00000+0 0  9998", "line2": "2 49056   0.0229  40.9329 0003609 233.8595 188.7902  1.00272849 16060"}}, "geometry": {"type": "Point", "coordinates": [22.500416411569233, 0.003843014247738097]}}, {"type": "Feature", "properties": {"norad_id": 53765, "name": "EUTELSAT KONNECT VHTS", "group": "eutelsat", "lat": -0.05363591788546672, "lon": -22.499154484389283, "alt_km": 35787.051775646025, "timestamp": "2025-12-13T16:48:32.384864+00:00", "meta": {"OBJECT_NAME": "EUTELSAT KONNECT VHTS", "OBJECT_ID": "2022-110A", "EPOCH": "2025-12-12T23:45:57.918816", "MEAN_MOTION": 1.00271501, "ECCENTRICITY": 0.00023835, "INCLINATION": 0.0657, "RA_OF_ASC_NODE": 101.0037, "ARG_OF_PERICENTER": 141.1037, "MEAN_ANOMALY": 199.031, "EPHEMERIS_TYPE": 0, "CLASSIFICATION_TYPE": "U", "NORAD_CAT_ID": 53765, "ELEMENT_SET_NO": 999, "REV_AT_EPOCH": 495, "BSTAR": 0, "MEAN_MOTION_DOT": 3e-07, "MEAN_MOTION_DDOT": 0}, "tle": {"line1": "1 53765U 22110A   25346.99025369  .00000030  00000+0  00000+0 0  9996", "line2": "2 53765   0.0657 101.0037 0002383 141.1037 199.0310  1.00271501  4959"}}, "geometry": {"type": "Point", "coordinates": [-22.499154484389283, -0.05363591788546672]}}, {"type": "Feature", "properties": {"norad_id": 54048, "name": "EUTELSAT HOTBIRD 13F", "group": "eutelsat", "lat": 0.041379745386089864, "lon": -12.25726143279434, "alt_km": 35777.056224418615, "timestamp": "2025-12-13T16:48:32.384876+00:00", "meta": {"OBJECT_NAME": "EUTELSAT HOTBIRD 13F", "OBJECT_ID": "2022-134A", "EPOCH": "2025-12-12T19:54:27.978336", "MEAN_MOTION": 1.00269766, "ECCENTRICITY": 0.00023058, "INCLINATION": 0.0458, "RA_OF_ASC_NODE": 294.3302, "ARG_OF_PERICENTER": 64.3051, "MEAN_ANOMALY": 34.7496, "EPHEMERIS_TYPE": 0, "CLASSIFICATION_TYPE": "U", "NORAD_CAT_ID": 54048, "ELEMENT_SET_NO": 999, "REV_AT_EPOCH": 1150, "BSTAR": 0, "MEAN_MOTION_DOT": 9.9e-07, "MEAN_MOTION_DDOT": 0}, "tle": {"line1": "1 54048U 22134A   25346.82949049  .00000099  00000+0  00000+0 0  9994", "line2": "2 54048   0.0458 294.3302 0002305  64.3051  34.7496  1.00269766 11509"}}, "geometry": {"type": "Point", "coordinates": [-12.25726143279434, 0.041379745386089864]}}, {"type": "Feature", "properties": {"norad_id": 54225, "name": "EUTELSAT HOTBIRD 13G", "group": "eutelsat", "lat": 0.041614282241800374, "lon": -12.25272604337428, "alt_km": 35793.41271388746, "timestamp": "2025-12-13T16:48:32.384888+00:00", "meta": {"OBJECT_NAME": "EUTELSAT HOTBIRD 13G", "OBJECT_ID": "2022-146A", "EPOCH": "2025-12-12T19:54:27.978336", "MEAN_MOTION": 1.00271446, "ECCENTRICITY": 0.00017929, "INCLINATION": 0.0469, "RA_OF_ASC_NODE": 232.9168, "ARG_OF_PERICENTER": 308.06, "MEAN_ANOMALY": 212.3975, "EPHEMERIS_TYPE": 0, "CLASSIFICATION_TYPE": "U", "NORAD_CAT_ID": 54225, "ELEMENT_SET_NO": 999, "REV_AT_EPOCH": 559, "BSTAR": 0, "MEAN_MOTION_DOT": 9.9e-07, "MEAN_MOTION_DDOT": 0}, "tle": {"line1": "1 54225U 22146A   25346.82949049  .00000099  00000+0  00000+0 0  9994", "line2": "2 54225   0.0469 232.9168 0001792 308.0600 212.3975  1.00271446  5599"}}, "geometry": {"type": "Point", "coordinates": [-12.25272604337428, 0.041614282241800374]}}, {"type": "Feature", "properties": {"norad_id": 54259, "name": "EUTELSAT 10B", "group": "eutelsat", "lat": -0.051937083701515195, "lon": -15.282347270755123, "alt_km": 35789.182419620396, "timestamp": "2025-12-13T16:48:32.384899+00:00", "meta": {"OBJECT_NAME": "EUTELSAT 10B", "OBJECT_ID": "2022-157A", "EPOCH": "2025-12-12T22:05:19.294944", "MEAN_MOTION": 1.00270516, "ECCENTRICITY": 6.833e-05, "INCLINATION": 0.0619, "RA_OF_ASC_NODE": 99.1566, "ARG_OF_PERICENTER": 53.3863, "MEAN_ANOMALY": 270.6141, "EPHEMERIS_TYPE": 0, "CLASSIFICATION_TYPE": "U", "NORAD_CAT_ID": 54259, "ELEMENT_SET_NO": 999, "REV_AT_EPOCH": 1115, "BSTAR": 0, "MEAN_MOTION_DOT": 8.1e-07, "MEAN_MOTION_DDOT": 0}, "tle": {"line1": "1 54259U 22157A   25346.92036221  .00000081  00000+0  00000+0 0  9994", "line2": "2 54259   0.0619  99.1566 0000683  53.3863 270.6141  1.00270516 11155"}}, "geometry": {"type": "Point", "coordinates": [-15.282347270755123, -0.051937083701515195]}}, {"type": "Feature", "properties": {"norad_id": 59346, "name": "EUTELSAT 36D", "group": "eutelsat", "lat": 0.017018209779147267, "lon": 10.588742137646292, "alt_km": 35783.84070766554, "timestamp": "2025-12-13T16:48:32.384911+00:00", "meta": {"OBJECT_NAME": "EUTELSAT 36D", "OBJECT_ID": "2024-059A", "EPOCH": "2025-12-12T22:12:41.090112", "MEAN_MOTION": 1.00269446, "ECCENTRICITY": 6.864e-05, "INCLINATION": 0.0196, "RA_OF_ASC_NODE": 350.3258, "ARG_OF_PERICENTER": 5.8335, "MEAN_ANOMALY": 94.714, "EPHEMERIS_TYPE": 0, "CLASSIFICATION_TYPE": "U", "NORAD_CAT_ID": 59346, "ELEMENT_SET_NO": 999, "REV_AT_EPOCH": 628, "BSTAR": 0, "MEAN_MOTION_DOT": 0, "MEAN_MOTION_DDOT": 0}, "tle": {"line1": "1 59346U 24059A   25346.92547558  .00000000  00000+0  00000+0 0  9990", "line2": "2 59346   0.0196 350.3258 0000686   5.8335  94.7140  1.00269446  6288"}}, "geometry": {"type": "Point", "coordinates": [10.588742137646292, 0.017018209779147267]}}]}